0 IRIDIUM 33 DEB
1 34368U 97051FL  13283.12604782  .00007497  00000-0  30327-2 0  4262
2 34368 086.3999 150.2157 0087301 067.6585 049.9504 14.25627462240160
0 IRIDIUM 33 DEB
1 34368U 97051FL  13286.14458657  .00006518  00000-0  26350-2 0  4281
2 34368 086.4002 148.9731 0087099 058.1888 061.8186 14.25663184240590
0 IRIDIUM 33 DEB
1 34368U 97051FL  13287.39521522  .00007184  00000-0  29041-2 0  4292
2 34368 086.3999 148.4581 0087085 054.3014 000.4282 14.25675519240766
0 IRIDIUM 33 DEB
1 34368U 97051FL  13288.81301693  .00008842  00000-0  35736-2 0  4307
2 34368 086.3995 147.8742 0086957 049.8363 077.1756 14.25702558240971
0 IRIDIUM 33 DEB
1 34368U 97051FL  13289.86622385  .00009516  00000-0  38456-2 0  4319
2 34368 086.3991 147.4406 0086835 046.5030 082.7662 14.25716431241121
0 IRIDIUM 33 DEB
1 34368U 97051FL  13290.90581256  .00009079  00000-0  36681-2 0  4320
2 34368 086.3987 147.0123 0086767 043.2365 018.4917 14.25731987241275
0 IRIDIUM 33 DEB
1 34368U 97051FL  13292.10990574  .00007209  00000-0  29112-2 0  4336
2 34368 086.3982 146.5163 0086701 039.4809 078.5848 14.25748719241446
0 IRIDIUM 33 DEB
1 34368U 97051FL  13293.36078745  .00008242  00000-0  33282-2 0  4344
2 34368 086.3980 146.0009 0086588 035.5493 018.9321 14.25764372241613
0 IRIDIUM 33 DEB
1 34368U 97051FL  13294.77955278  .00009654  00000-0  38980-2 0  4354
2 34368 086.3980 145.4164 0086416 031.0197 101.1271 14.25784195241827
0 IRIDIUM 33 DEB
1 34368U 97051FL  13296.04728061  .00009020  00000-0  36408-2 0  4365
2 34368 086.3981 144.8944 0086287 027.0090 128.1285 14.25803081242001
